CCSDS_OMM_VERS = 2.0
CREATION_DATE  = 
ORIGINATOR     = 

OBJECT_NAME    = UNKNOWN
OBJECT_ID      = 
CENTER_NAME    = EARTH
REF_FRAME      = TEME
TIME_SYSTEM    = UTC
MEAN_ELEMENT_THEORY = SGP/SGP4

EPOCH          = 2025-12-03T18:38:18.456864
MEAN_MOTION    = 15.37660075
ECCENTRICITY   = .0041111
INCLINATION    = 97.6575
RA_OF_ASC_NODE = 353.0847
ARG_OF_PERICENTER = 94.1798
MEAN_ANOMALY   = 266.4146

EPHEMERIS_TYPE = 0
CLASSIFICATION_TYPE = U
NORAD_CAT_ID   = 89161
ELEMENT_SET_NO = 999
REV_AT_EPOCH   = 54720
BSTAR          = .29169E-2
MEAN_MOTION_DOT = .112307E-2
MEAN_MOTION_DDOT = 0

CCSDS_OMM_VERS = 2.0
CREATION_DATE  = 
ORIGINATOR     = 

OBJECT_NAME    = UNKNOWN
OBJECT_ID      = 
CENTER_NAME    = EARTH
REF_FRAME      = TEME
TIME_SYSTEM    = UTC
MEAN_ELEMENT_THEORY = SGP/SGP4

EPOCH          = 2025-11-28T23:42:09.108288
MEAN_MOTION    = 14.45939828
ECCENTRICITY   = .0294211
INCLINATION    = 82.0647
RA_OF_ASC_NODE = 234.8471
ARG_OF_PERICENTER = 324.0687
MEAN_ANOMALY   = 34.1028

EPHEMERIS_TYPE = 0
CLASSIFICATION_TYPE = U
NORAD_CAT_ID   = 89172
ELEMENT_SET_NO = 999
REV_AT_EPOCH   = 59990
BSTAR          = .27689E-2
MEAN_MOTION_DOT = .16958E-3
MEAN_MOTION_DDOT = 0

CCSDS_OMM_VERS = 2.0
CREATION_DATE  = 
ORIGINATOR     = 

OBJECT_NAME    = UNKNOWN
OBJECT_ID      = 
CENTER_NAME    = EARTH
REF_FRAME      = TEME
TIME_SYSTEM    = UTC
MEAN_ELEMENT_THEORY = SGP/SGP4

EPOCH          = 2025-11-28T14:29:50.041824
MEAN_MOTION    = 13.73722918
ECCENTRICITY   = .0032265
INCLINATION    = 82.9201
RA_OF_ASC_NODE = 279.5997
ARG_OF_PERICENTER = 179.4907
MEAN_ANOMALY   = 180.6287

EPHEMERIS_TYPE = 0
CLASSIFICATION_TYPE = U
NORAD_CAT_ID   = 89177
ELEMENT_SET_NO = 999
REV_AT_EPOCH   = 6088
BSTAR          = .10844E-3
MEAN_MOTION_DOT = .117E-5
MEAN_MOTION_DDOT = 0

CCSDS_OMM_VERS = 2.0
CREATION_DATE  = 
ORIGINATOR     = 

OBJECT_NAME    = UNKNOWN
OBJECT_ID      = 
CENTER_NAME    = EARTH
REF_FRAME      = TEME
TIME_SYSTEM    = UTC
MEAN_ELEMENT_THEORY = SGP/SGP4

EPOCH          = 2025-12-03T04:50:07.748448
MEAN_MOTION    = 13.81565445
ECCENTRICITY   = .0129697
INCLINATION    = 99.2172
RA_OF_ASC_NODE = 248.4969
ARG_OF_PERICENTER = 181.7890
MEAN_ANOMALY   = 178.2816

EPHEMERIS_TYPE = 0
CLASSIFICATION_TYPE = U
NORAD_CAT_ID   = 89183
ELEMENT_SET_NO = 999
REV_AT_EPOCH   = 60565
BSTAR          = .57733E-3
MEAN_MOTION_DOT = .613E-5
MEAN_MOTION_DDOT = 0

CCSDS_OMM_VERS = 2.0
CREATION_DATE  = 
ORIGINATOR     = 

OBJECT_NAME    = UNKNOWN
OBJECT_ID      = 
CENTER_NAME    = EARTH
REF_FRAME      = TEME
TIME_SYSTEM    = UTC
MEAN_ELEMENT_THEORY = SGP/SGP4

EPOCH          = 2025-12-04T08:54:05.284800
MEAN_MOTION    = 14.80418723
ECCENTRICITY   = .0008416
INCLINATION    = 98.3895
RA_OF_ASC_NODE = 202.7135
ARG_OF_PERICENTER = 145.9691
MEAN_ANOMALY   = 214.2061

EPHEMERIS_TYPE = 0
CLASSIFICATION_TYPE = U
NORAD_CAT_ID   = 89184
ELEMENT_SET_NO = 999
REV_AT_EPOCH   = 49093
BSTAR          = .87531E-2
MEAN_MOTION_DOT = .67503E-3
MEAN_MOTION_DDOT = 0

CCSDS_OMM_VERS = 2.0
CREATION_DATE  = 
ORIGINATOR     = 

OBJECT_NAME    = UNKNOWN
OBJECT_ID      = 
CENTER_NAME    = EARTH
REF_FRAME      = TEME
TIME_SYSTEM    = UTC
MEAN_ELEMENT_THEORY = SGP/SGP4

EPOCH          = 2025-11-30T02:50:57.790752
MEAN_MOTION    = 13.91568480
ECCENTRICITY   = .0227667
INCLINATION    = 98.7799
RA_OF_ASC_NODE = 207.9253
ARG_OF_PERICENTER = 160.9581
MEAN_ANOMALY   = 200.0267

EPHEMERIS_TYPE = 0
CLASSIFICATION_TYPE = U
NORAD_CAT_ID   = 89213
ELEMENT_SET_NO = 999
REV_AT_EPOCH   = 45091
BSTAR          = .24639E-3
MEAN_MOTION_DOT = .346E-5
MEAN_MOTION_DDOT = 0

CCSDS_OMM_VERS = 2.0
CREATION_DATE  = 
ORIGINATOR     = 

OBJECT_NAME    = UNKNOWN
OBJECT_ID      = 
CENTER_NAME    = EARTH
REF_FRAME      = TEME
TIME_SYSTEM    = UTC
MEAN_ELEMENT_THEORY = SGP/SGP4

EPOCH          = 2025-12-04T11:43:47.837568
MEAN_MOTION    = 9.24471993
ECCENTRICITY   = .2834277
INCLINATION    = 62.4783
RA_OF_ASC_NODE = 14.2193
ARG_OF_PERICENTER = 99.9073
MEAN_ANOMALY   = 292.9409

EPHEMERIS_TYPE = 0
CLASSIFICATION_TYPE = U
NORAD_CAT_ID   = 89251
ELEMENT_SET_NO = 999
REV_AT_EPOCH   = 37242
BSTAR          = .12562E-1
MEAN_MOTION_DOT = .21357E-3
MEAN_MOTION_DDOT = 0

CCSDS_OMM_VERS = 2.0
CREATION_DATE  = 
ORIGINATOR     = 

OBJECT_NAME    = UNKNOWN
OBJECT_ID      = 
CENTER_NAME    = EARTH
REF_FRAME      = TEME
TIME_SYSTEM    = UTC
MEAN_ELEMENT_THEORY = SGP/SGP4

EPOCH          = 2025-12-01T17:31:19.491744
MEAN_MOTION    = 14.43078198
ECCENTRICITY   = .0012583
INCLINATION    = 98.1534
RA_OF_ASC_NODE = 330.6178
ARG_OF_PERICENTER = 187.3541
MEAN_ANOMALY   = 172.7467

EPHEMERIS_TYPE = 0
CLASSIFICATION_TYPE = U
NORAD_CAT_ID   = 89261
ELEMENT_SET_NO = 999
REV_AT_EPOCH   = 53222
BSTAR          = .31627E-3
MEAN_MOTION_DOT = .102E-4
MEAN_MOTION_DDOT = 0

CCSDS_OMM_VERS = 2.0
CREATION_DATE  = 
ORIGINATOR     = 

OBJECT_NAME    = UNKNOWN
OBJECT_ID      = 
CENTER_NAME    = EARTH
REF_FRAME      = TEME
TIME_SYSTEM    = UTC
MEAN_ELEMENT_THEORY = SGP/SGP4

EPOCH          = 2025-12-04T15:36:18.226944
MEAN_MOTION    = 9.03063279
ECCENTRICITY   = .2844249
INCLINATION    = 84.3364
RA_OF_ASC_NODE = 106.1463
ARG_OF_PERICENTER = 356.2066
MEAN_ANOMALY   = 8.8658

EPHEMERIS_TYPE = 0
CLASSIFICATION_TYPE = U
NORAD_CAT_ID   = 89304
ELEMENT_SET_NO = 999
REV_AT_EPOCH   = 43767
BSTAR          = .33948E-1
MEAN_MOTION_DOT = .26411E-3
MEAN_MOTION_DDOT = 0

CCSDS_OMM_VERS = 2.0
CREATION_DATE  = 
ORIGINATOR     = 

OBJECT_NAME    = UNKNOWN
OBJECT_ID      = 
CENTER_NAME    = EARTH
REF_FRAME      = TEME
TIME_SYSTEM    = UTC
MEAN_ELEMENT_THEORY = SGP/SGP4

EPOCH          = 2025-12-03T11:58:48.809856
MEAN_MOTION    = 12.96240087
ECCENTRICITY   = .0028037
INCLINATION    = 90.2445
RA_OF_ASC_NODE = 7.1463
ARG_OF_PERICENTER = 290.5865
MEAN_ANOMALY   = 69.2248

EPHEMERIS_TYPE = 0
CLASSIFICATION_TYPE = U
NORAD_CAT_ID   = 89349
ELEMENT_SET_NO = 999
REV_AT_EPOCH   = 47755
BSTAR          = -.2632E-3
MEAN_MOTION_DOT = -.68E-6
MEAN_MOTION_DDOT = 0

CCSDS_OMM_VERS = 2.0
CREATION_DATE  = 
ORIGINATOR     = 

OBJECT_NAME    = UNKNOWN
OBJECT_ID      = 
CENTER_NAME    = EARTH
REF_FRAME      = TEME
TIME_SYSTEM    = UTC
MEAN_ELEMENT_THEORY = SGP/SGP4

EPOCH          = 2025-12-03T18:06:57.478752
MEAN_MOTION    = 13.62594501
ECCENTRICITY   = .00444
INCLINATION    = 100.4857
RA_OF_ASC_NODE = 352.3599
ARG_OF_PERICENTER = 151.7073
MEAN_ANOMALY   = 208.6490

EPHEMERIS_TYPE = 0
CLASSIFICATION_TYPE = U
NORAD_CAT_ID   = 89379
ELEMENT_SET_NO = 999
REV_AT_EPOCH   = 57955
BSTAR          = .72407E-2
MEAN_MOTION_DOT = .5625E-4
MEAN_MOTION_DDOT = 0

CCSDS_OMM_VERS = 2.0
CREATION_DATE  = 
ORIGINATOR     = 

OBJECT_NAME    = UNKNOWN
OBJECT_ID      = 
CENTER_NAME    = EARTH
REF_FRAME      = TEME
TIME_SYSTEM    = UTC
MEAN_ELEMENT_THEORY = SGP/SGP4

EPOCH          = 2025-11-26T10:19:17.849280
MEAN_MOTION    = 12.01514817
ECCENTRICITY   = .0221848
INCLINATION    = 102.3682
RA_OF_ASC_NODE = 299.5856
ARG_OF_PERICENTER = 152.7477
MEAN_ANOMALY   = 0.1865

EPHEMERIS_TYPE = 0
CLASSIFICATION_TYPE = U
NORAD_CAT_ID   = 89395
ELEMENT_SET_NO = 999
REV_AT_EPOCH   = 52278
BSTAR          = .16005E-2
MEAN_MOTION_DOT = .1E-5
MEAN_MOTION_DDOT = 0

CCSDS_OMM_VERS = 2.0
CREATION_DATE  = 
ORIGINATOR     = 

OBJECT_NAME    = UNKNOWN
OBJECT_ID      = 
CENTER_NAME    = EARTH
REF_FRAME      = TEME
TIME_SYSTEM    = UTC
MEAN_ELEMENT_THEORY = SGP/SGP4

EPOCH          = 2025-11-27T01:44:15.667584
MEAN_MOTION    = 12.98727264
ECCENTRICITY   = .0027495
INCLINATION    = 90.2483
RA_OF_ASC_NODE = 5.4537
ARG_OF_PERICENTER = 255.8445
MEAN_ANOMALY   = 133.0686

EPHEMERIS_TYPE = 0
CLASSIFICATION_TYPE = U
NORAD_CAT_ID   = 89403
ELEMENT_SET_NO = 999
REV_AT_EPOCH   = 47579
BSTAR          = .10301E-2
MEAN_MOTION_DOT = .312E-5
MEAN_MOTION_DDOT = 0

CCSDS_OMM_VERS = 2.0
CREATION_DATE  = 
ORIGINATOR     = 

OBJECT_NAME    = UNKNOWN
OBJECT_ID      = 
CENTER_NAME    = EARTH
REF_FRAME      = TEME
TIME_SYSTEM    = UTC
MEAN_ELEMENT_THEORY = SGP/SGP4

EPOCH          = 2025-12-04T11:13:10.878528
MEAN_MOTION    = 9.13884250
ECCENTRICITY   = .2858583
INCLINATION    = 84.0810
RA_OF_ASC_NODE = 157.0909
ARG_OF_PERICENTER = 37.6668
MEAN_ANOMALY   = 339.3609

EPHEMERIS_TYPE = 0
CLASSIFICATION_TYPE = U
NORAD_CAT_ID   = 89484
ELEMENT_SET_NO = 999
REV_AT_EPOCH   = 35468
BSTAR          = .57103E-1
MEAN_MOTION_DOT = .75203E-3
MEAN_MOTION_DDOT = 0

CCSDS_OMM_VERS = 2.0
CREATION_DATE  = 
ORIGINATOR     = 

OBJECT_NAME    = UNKNOWN
OBJECT_ID      = 
CENTER_NAME    = EARTH
REF_FRAME      = TEME
TIME_SYSTEM    = UTC
MEAN_ELEMENT_THEORY = SGP/SGP4

EPOCH          = 2025-11-30T15:25:56.459712
MEAN_MOTION    = 14.16161642
ECCENTRICITY   = .0081658
INCLINATION    = 99.0280
RA_OF_ASC_NODE = 43.3463
ARG_OF_PERICENTER = 75.3205
MEAN_ANOMALY   = 285.7002

EPHEMERIS_TYPE = 0
CLASSIFICATION_TYPE = U
NORAD_CAT_ID   = 89493
ELEMENT_SET_NO = 999
REV_AT_EPOCH   = 46223
BSTAR          = .13677E-2
MEAN_MOTION_DOT = .275E-4
MEAN_MOTION_DDOT = 0

CCSDS_OMM_VERS = 2.0
CREATION_DATE  = 
ORIGINATOR     = 

OBJECT_NAME    = UNKNOWN
OBJECT_ID      = 
CENTER_NAME    = EARTH
REF_FRAME      = TEME
TIME_SYSTEM    = UTC
MEAN_ELEMENT_THEORY = SGP/SGP4

EPOCH          = 2025-12-04T15:41:01.071168
MEAN_MOTION    = 14.16129144
ECCENTRICITY   = .008176
INCLINATION    = 99.0287
RA_OF_ASC_NODE = 47.2983
ARG_OF_PERICENTER = 63.9799
MEAN_ANOMALY   = 296.9765

EPHEMERIS_TYPE = 0
CLASSIFICATION_TYPE = U
NORAD_CAT_ID   = 89494
ELEMENT_SET_NO = 999
REV_AT_EPOCH   = 46265
BSTAR          = .27566E-2
MEAN_MOTION_DOT = .5588E-4
MEAN_MOTION_DDOT = 0

